{
    "links": {
        "self": "http://www.neowsapp.com/rest/v1/neo/3840740?api_key=iIulBulltgU6a56xZRHN4H3l9WmuAYTsLGpBGhQ2"
    },
    "id": "3840740",
    "neo_reference_id": "3840740",
    "name": "(2019 FQ2)",
    "designation": "2019 FQ2",
    "nasa_jpl_url": "http://ssd.jpl.nasa.gov/sbdb.cgi?sstr=3840740",
    "absolute_magnitude_h": 27.2,
    "estimated_diameter": {
        "kilometers": {
            "estimated_diameter_min": 0.0096506147,
            "estimated_diameter_max": 0.0215794305
        },
        "meters": {
            "estimated_diameter_min": 9.6506146958,
            "estimated_diameter_max": 21.5794304844
        },
        "miles": {
            "estimated_diameter_min": 0.0059966121,
            "estimated_diameter_max": 0.0134088323
        },
        "feet": {
            "estimated_diameter_min": 31.6621227185,
            "estimated_diameter_max": 70.7986587106
        }
    },
    "is_potentially_hazardous_asteroid": false,
    "close_approach_data": [
        {
            "close_approach_date": "2019-03-30",
            "close_approach_date_full": "2019-Mar-30 02:02",
            "epoch_date_close_approach": 1553911320000,
            "relative_velocity": {
                "kilometers_per_second": "6.5183334294",
                "kilometers_per_hour": "23466.0003457953",
                "miles_per_hour": "14580.8600481971"
            },
            "miss_distance": {
                "astronomical": "0.0299942608",
                "lunar": "11.6677674512",
                "kilometers": "4487077.527904496",
                "miles": "2788140.6880382048"
            },
            "orbiting_body": "Earth"
        },
        {
            "close_approach_date": "2126-02-08",
            "close_approach_date_full": "2126-Feb-08 17:59",
            "epoch_date_close_approach": 4926247140000,
            "relative_velocity": {
                "kilometers_per_second": "16.6139650215",
                "kilometers_per_hour": "59810.2740773975",
                "miles_per_hour": "37163.7783565918"
            },
            "miss_distance": {
                "astronomical": "0.3373807761",
                "lunar": "131.2411219029",
                "kilometers": "50471445.483506907",
                "miles": "31361501.9712810366"
            },
            "orbiting_body": "Earth"
        }
    ],
    "orbital_data": {
        "orbit_id": "4",
        "orbit_determination_date": "2019-04-09 07:29:27",
        "first_observation_date": "2019-03-31",
        "last_observation_date": "2019-04-08",
        "data_arc_in_days": 8,
        "observations_used": 43,
        "orbit_uncertainty": "7",
        "minimum_orbit_intersection": ".0278654",
        "jupiter_tisserand_invariant": "3.517",
        "epoch_osculation": "2459000.5",
        "eccentricity": ".5230504017911725",
        "semi_major_axis": "2.148369383400787",
        "inclination": "1.189785784857595",
        "ascending_node_longitude": "195.3365883729576",
        "orbital_period": "1150.169531440377",
        "perihelion_distance": "1.024663914217152",
        "perihelion_argument": "346.3283300814842",
        "aphelion_distance": "3.272074852584422",
        "perihelion_time": "2458566.758693786273",
        "mean_anomaly": "135.7598736261046",
        "mean_motion": ".3129973366179904",
        "equinox": "J2000",
        "orbit_class": {
            "orbit_class_type": "AMO",
            "orbit_class_description": "Near-Earth asteroid orbits similar to that of 1221 Amor",
            "orbit_class_range": "1.017 AU < q (perihelion) < 1.3 AU"
        }
    },
    "is_sentry_object": false
}